[
    {
        "Altitude(m)": 571551.2191894652,
        "Argument of Periapsis(deg)": 0.0,
        "Eccentricity": 0.0,
        "Inclination(deg)": 53.0,
        "Latitude(deg)": -52.388031504107374,
        "Longitude(deg)": 96.62410128570636,
        "Mean Anomaly(deg)": -98.18180000000004,
        "RAAN(deg)": 300.0,
        "Satellite Name": "Starlink Shell 1 1336",
        "Satellite Number": 1336,
        "Semi-Major Axis(m)": 6931778.249405717,
        "Time(s)": 0
    },
    {
        "Altitude(m)": 571594.3617538548,
        "Argument of Periapsis(deg)": 0.00034857847951123687,
        "Eccentricity": 0.0,
        "Inclination(deg)": 53.0,
        "Latitude(deg)": -52.49947494991817,
        "Longitude(deg)": 97.58849585901315,
        "Mean Anomaly(deg)": -97.55496879644338,
        "RAAN(deg)": 299.99948122992254,
        "Satellite Name": "Starlink Shell 1 1336",
        "Satellite Number": 1336,
        "Semi-Major Axis(m)": 6931778.249405717,
        "Time(s)": 10
    },
    {
        "Altitude(m)": 571634.1233875564,
        "Argument of Periapsis(deg)": 0.0006971569590224737,
        "Eccentricity": 0.0,
        "Inclination(deg)": 53.0,
        "Latitude(deg)": -52.60233103193168,
        "Longitude(deg)": 98.55778322510672,
        "Mean Anomaly(deg)": -96.92813759288654,
        "RAAN(deg)": 299.9989624598451,
        "Satellite Name": "Starlink Shell 1 1336",
        "Satellite Number": 1336,
        "Semi-Major Axis(m)": 6931778.249405717,
        "Time(s)": 20
    },
    {
        "Altitude(m)": 571670.4882079453,
        "Argument of Periapsis(deg)": 0.0010457354385337105,
        "Eccentricity": 0.0,
        "Inclination(deg)": 53.0,
        "Latitude(deg)": -52.69652814595244,
        "Longitude(deg)": 99.53160742931178,
        "Mean Anomaly(deg)": -96.30130638932985,
        "RAAN(deg)": 299.9984436897676,
        "Satellite Name": "Starlink Shell 1 1336",
        "Satellite Number": 1336,
        "Semi-Major Axis(m)": 6931778.249405717,
        "Time(s)": 30
    },
    {
        "Altitude(m)": 571703.4416855901,
        "Argument of Periapsis(deg)": 0.0013943139180449475,
        "Eccentricity": 0.0,
        "Inclination(deg)": 53.0,
        "Latitude(deg)": -52.78200002635348,
        "Longitude(deg)": 100.5096005921802,
        "Mean Anomaly(deg)": -95.67447518577309,
        "RAAN(deg)": 299.9979249196901,
        "Satellite Name": "Starlink Shell 1 1336",
        "Satellite Number": 1336,
        "Semi-Major Axis(m)": 6931778.249405717,
        "Time(s)": 40
    },
    {
        "Altitude(m)": 571732.9706505423,
        "Argument of Periapsis(deg)": 0.0017428923975561844,
        "Eccentricity": 0.0,
        "Inclination(deg)": 53.0,
        "Latitude(deg)": -52.85868596785865,
        "Longitude(deg)": 101.49138273434737,
        "Mean Anomaly(deg)": -95.04764398221636,
        "RAAN(deg)": 299.99740614961263,
        "Satellite Name": "Starlink Shell 1 1336",
        "Satellite Number": 1336,
        "Semi-Major Axis(m)": 6931778.249405717,
        "Time(s)": 50
    },
    {
        "Altitude(m)": 571759.0632980395,
        "Argument of Periapsis(deg)": 0.002091470877067421,
        "Eccentricity": 0.0,
        "Inclination(deg)": 53.0,
        "Latitude(deg)": -52.92653103210012,
        "Longitude(deg)": 102.47656319074241,
        "Mean Anomaly(deg)": -94.4208127786597,
        "RAAN(deg)": 299.9968873795352,
        "Satellite Name": "Starlink Shell 1 1336",
        "Satellite Number": 1336,
        "Semi-Major Axis(m)": 6931778.249405717,
        "Time(s)": 60
    },
    {
        "Altitude(m)": 571781.7091936196,
        "Argument of Periapsis(deg)": 0.0024400493565786582,
        "Eccentricity": 0.0,
        "Inclination(deg)": 53.0,
        "Latitude(deg)": -52.985486237355374,
        "Longitude(deg)": 103.46474209677625,
        "Mean Anomaly(deg)": -93.79398157510303,
        "RAAN(deg)": 299.9963686094577,
        "Satellite Name": "Starlink Shell 1 1336",
        "Satellite Number": 1336,
        "Semi-Major Axis(m)": 6931778.249405717,
        "Time(s)": 70
    },
    {
        "Altitude(m)": 571800.8992776215,
        "Argument of Periapsis(deg)": 0.002788627836089895,
        "Eccentricity": 0.0,
        "Inclination(deg)": 53.0,
        "Latitude(deg)": -53.0355087299651,
        "Longitude(deg)": 104.45551042825845,
        "Mean Anomaly(deg)": -93.16715037154628,
        "RAAN(deg)": 299.99584983938024,
        "Satellite Name": "Starlink Shell 1 1336",
        "Satellite Number": 1336,
        "Semi-Major Axis(m)": 6931778.249405717,
        "Time(s)": 80
    },
    {
        "Altitude(m)": 571816.625869119,
        "Argument of Periapsis(deg)": 0.0031372063156011316,
        "Eccentricity": 0.0,
        "Inclination(deg)": 53.0,
        "Latitude(deg)": -53.0765619360536,
        "Longitude(deg)": 105.44845161456698,
        "Mean Anomaly(deg)": -92.54031916798951,
        "RAAN(deg)": 299.9953310693028,
        "Satellite Name": "Starlink Shell 1 1336",
        "Satellite Number": 1336,
        "Semi-Major Axis(m)": 6931778.249405717,
        "Time(s)": 90
    },
    {
        "Altitude(m)": 571828.8826692369,
        "Argument of Periapsis(deg)": 0.0034857847951123688,
        "Eccentricity": 0.0,
        "Inclination(deg)": 53.0,
        "Latitude(deg)": -53.10861569230992,
        "Longitude(deg)": 106.44314320521752,
        "Mean Anomaly(deg)": -91.91348796443285,
        "RAAN(deg)": 299.99481229922526,
        "Satellite Name": "Starlink Shell 1 1336",
        "Satellite Number": 1336,
        "Semi-Major Axis(m)": 6931778.249405717,
        "Time(s)": 100
    },
    {
        "Altitude(m)": 571837.6647638832,
        "Argument of Periapsis(deg)": 0.003834363274623606,
        "Eccentricity": 0.0,
        "Inclination(deg)": 53.0,
        "Latitude(deg)": -53.13164635474477,
        "Longitude(deg)": 107.43915706927936,
        "Mean Anomaly(deg)": -91.28665676087621,
        "RAAN(deg)": 299.99429352914785,
        "Satellite Name": "Starlink Shell 1 1336",
        "Satellite Number": 1336,
        "Semi-Major Axis(m)": 6931778.249405717,
        "Time(s)": 110
    },
    {
        "Altitude(m)": 571842.9686258748,
        "Argument of Periapsis(deg)": 0.004182941754134842,
        "Eccentricity": 0.0,
        "Inclination(deg)": 53.0,
        "Latitude(deg)": -53.14563688451057,
        "Longitude(deg)": 108.43606114508925,
        "Mean Anomaly(deg)": -90.65982555731935,
        "RAAN(deg)": 299.99377475907033,
        "Satellite Name": "Starlink Shell 1 1336",
        "Satellite Number": 1336,
        "Semi-Major Axis(m)": 6931778.249405717,
        "Time(s)": 120
    },
    {
        "Altitude(m)": 571844.7921164604,
        "Argument of Periapsis(deg)": 0.004531520233646079,
        "Eccentricity": 0.0,
        "Inclination(deg)": 53.0,
        "Latitude(deg)": -53.1505769100579,
        "Longitude(deg)": 109.43342121860417,
        "Mean Anomaly(deg)": -90.03299435376263,
        "RAAN(deg)": 299.99325598899287,
        "Satellite Name": "Starlink Shell 1 1336",
        "Satellite Number": 1336,
        "Semi-Major Axis(m)": 6931778.249405717,
        "Time(s)": 130
    },
    {
        "Altitude(m)": 571843.1344862614,
        "Argument of Periapsis(deg)": 0.0048800987131573164,
        "Eccentricity": 0.0,
        "Inclination(deg)": 53.0,
        "Latitude(deg)": -53.14646276509681,
        "Longitude(deg)": 110.43080120834915,
        "Mean Anomaly(deg)": -89.40616315020603,
        "RAAN(deg)": 299.9927372189154,
        "Satellite Name": "Starlink Shell 1 1336",
        "Satellite Number": 1336,
        "Semi-Major Axis(m)": 6931778.249405717,
        "Time(s)": 140
    },
    {
        "Altitude(m)": 571837.9963755793,
        "Argument of Periapsis(deg)": 0.005228677192668553,
        "Eccentricity": 0.0,
        "Inclination(deg)": 53.0,
        "Latitude(deg)": -53.133297502038964,
        "Longitude(deg)": 111.42776497325146,
        "Mean Anomaly(deg)": -88.77933194664925,
        "RAAN(deg)": 299.99221844883795,
        "Satellite Name": "Starlink Shell 1 1336",
        "Satellite Number": 1336,
        "Semi-Major Axis(m)": 6931778.249405717,
        "Time(s)": 150
    },
    {
        "Altitude(m)": 571829.3798141364,
        "Argument of Periapsis(deg)": 0.00557725567217979,
        "Eccentricity": 0.0,
        "Inclination(deg)": 53.0,
        "Latitude(deg)": -53.11109088080465,
        "Longitude(deg)": 112.4238781209126,
        "Mean Anomaly(deg)": -88.15250074309259,
        "RAAN(deg)": 299.9916996787604,
        "Satellite Name": "Starlink Shell 1 1336",
        "Satellite Number": 1336,
        "Semi-Major Axis(m)": 6931778.249405717,
        "Time(s)": 160
    },
    {
        "Altitude(m)": 571817.288220198,
        "Argument of Periapsis(deg)": 0.0059258341516910265,
        "Eccentricity": 0.0,
        "Inclination(deg)": 53.0,
        "Latitude(deg)": -53.07985933309018,
        "Longitude(deg)": 113.41870829386623,
        "Mean Anomaly(deg)": -87.52566953953587,
        "RAAN(deg)": 299.99118090868296,
        "Satellite Name": "Starlink Shell 1 1336",
        "Satellite Number": 1336,
        "Semi-Major Axis(m)": 6931778.249405717,
        "Time(s)": 170
    },
    {
        "Altitude(m)": 571801.7263991,
        "Argument of Periapsis(deg)": 0.006274412631202263,
        "Eccentricity": 0.0,
        "Inclination(deg)": 53.0,
        "Latitude(deg)": -53.03962590240308,
        "Longitude(deg)": 114.41182695009236,
        "Mean Anomaly(deg)": -86.89883833597916,
        "RAAN(deg)": 299.9906621386055,
        "Satellite Name": "Starlink Shell 1 1336",
        "Satellite Number": 1336,
        "Semi-Major Axis(m)": 6931778.249405717,
        "Time(s)": 180
    }
]